STARLINK-37276          
1 69258U 26117W   26159.16672454 -.01975798  11152-2 -45945-2 0  9994
2 69258  53.1560 288.3831 0000763  55.6252 299.0491 15.96558224  2717
STARLINK-37518          
1 69259U 26117X   26159.16672454 -.01086724  37392-3 -24538-2 0  9997
2 69259  53.1558 288.3723 0000959  51.5636 308.6804 15.96954390  2723
STARLINK-37478          
1 69260U 26117Y   26159.16672454 -.00339327  49675-4 -81035-3 0  9992
2 69260  53.1560 288.3770 0000859  54.1696 303.9043 15.95724184  2722
STARLINK-37506          
1 69261U 26117Z   26159.16672454 -.00344785  50883-4 -82504-3 0  9992
2 69261  53.1557 288.3675 0000940  54.9388 307.5987 15.95690538  2722
STARLINK-37503          
1 69262U 26117AA  26159.16672454 -.00575341  11765-3 -14366-2 0  9992
2 69262  53.1559 288.3560 0000719  66.7549 300.9989 15.94996696  2724
STARLINK-37502          
1 69263U 26117AB  26159.16672454 -.00334963  48563-4 -81403-3 0  9990
2 69263  53.1558 288.3520 0000937  53.0440 316.4333 15.95399116  2721
STARLINK-37486          
1 69264U 26117AC  26159.16672454 -.00323984  46226-4 -78366-3 0  9990
2 69264  53.1555 288.3397 0000855  54.5437 320.9886 15.95478617  2729
STARLINK-37435          
1 69265U 26117AD  26159.16672454 -.01880241  10107-2 -44974-2 0  9990
2 69265  53.1556 288.3160 0000770  59.4987 326.9828 15.96029105  2726
STARLINK-37464          
1 69266U 26117AE  26159.16672454 -.02073184  12169-2 -49035-2 0  9995
2 69266  53.1557 288.2930 0000650  59.5449 337.9823 15.96258675  2726
KUIPER-00282            
1 69267U 26118A   26159.16672454  .00021046  00000+0  61630-3 0  9997
2 69267  51.8579  97.0223 0011634 149.1588 189.6919 15.35123486  1968
KUIPER-00383            
1 69268U 26118B   26159.16672454  .00009392  00000+0  28089-3 0  9999
2 69268  51.8585  96.9925 0010500 146.7206 206.7412 15.35218572  2022
KUIPER-00527            
1 69269U 26118C   26159.16672454  .00030689  00000+0  87410-3 0  9996
2 69269  51.8614  96.9701 0009779 142.2202 222.6904 15.35792843  1302
KUIPER-00562            
1 69270U 26118D   26159.16672454  .00022215  00000+0  58555-3 0  9992
2 69270  51.8720  96.8071 0001934  86.4385 352.8691 15.38425747  2564
KUIPER-00570            
1 69271U 26118E   26159.16672454  .00020120  00000+0  58487-3 0  9990
2 69271  51.8570  96.9928 0011541 151.0469 202.1480 15.35385182  2149
KUIPER-00572            
1 69272U 26118F   26159.16672454  .00021046  00000+0  58513-3 0  9999
2 69272  51.8670  96.9274 0007401 137.7719 247.7410 15.36786509  1904
KUIPER-00581            
1 69273U 26118G   26159.16672454  .00020642  00000+0  57991-3 0  9990
2 69273  51.8649  96.9495 0008968 142.6664 232.3015 15.36462585  2692
KUIPER-00584            
1 69274U 26118H   26159.16672454  .00020876  00000+0  60871-3 0  9991
2 69274  51.8597  97.0129 0011166 155.4049 188.2034 15.35266971  1301
KUIPER-00587            
1 69275U 26118J   26159.16672454  .00020310  00000+0  57115-3 0  9992
2 69275  51.8623  96.9435 0008335 144.4281 233.5749 15.36446892  1300
KUIPER-00590            
1 69276U 26118K   26159.16672454  .00021750  00000+0  58767-3 0  9996
2 69276  51.8686  96.8671 0004295 125.4001 289.2461 15.37668541  2455
KUIPER-00592            
1 69277U 26118L   26159.16672454  .00021701  00000+0  58228-3 0  9995
2 69277  51.8707  96.8504 0003792 103.7169 317.8106 15.37886820  1309
KUIPER-00593            
1 69278U 26118M   26159.16672454  .00020821  00000+0  56072-3 0  9993
2 69278  51.8713  96.8513 0004079 120.7794 299.6136 15.37799375  2667
KUIPER-00594            
1 69279U 26118N   26159.16672454  .00026117  00000+0  68672-3 0  9997
2 69279  51.8717  96.7980 0001477  62.3819  23.0759 15.38404088  1302
KUIPER-00595            
1 69280U 26118P   26159.16672454  .00021471  00000+0  56877-3 0  9991
2 69280  51.8711  96.8186 0002015 100.9627 335.7922 15.38292391  2636
KUIPER-00596            
1 69281U 26118Q   26159.16672454  .00011569  00000+0  33894-3 0  9993
2 69281  51.8545  97.0015 0011917 151.0438 197.1925 15.35609763  1896
KUIPER-00597            
1 69282U 26118R   26159.16672454  .00020788  00000+0  57701-3 0  9990
2 69282  51.8647  96.9121 0007266 136.0821 257.4086 15.36846082  1309
KUIPER-00599            
1 69283U 26118S   26159.16672454  .00020388  00000+0  56061-3 0  9995
2 69283  51.8689  96.8994 0006368 130.7806 267.8848 15.37157057  1702
KUIPER-00600            
1 69284U 26118T   26159.16672454  .00020691  00000+0  57948-3 0  9998
2 69284  51.8637  96.9395 0008974 138.6591 241.2816 15.36557556  2489
KUIPER-00601            
1 69285U 26118U   26159.16672454  .00020968  00000+0  57035-3 0  9993
2 69285  51.8703  96.8781 0004907 123.4841 284.8249 15.37481991  2511
KUIPER-00602            
1 69286U 26118V   26159.16672454  .00021286  00000+0  57071-3 0  9998
2 69286  51.8700  96.8450 0003198 111.5529 313.2219 15.37923966  1307
KUIPER-00603            
1 69287U 26118W   26159.16672454  .00020580  00000+0  56257-3 0  9990
2 69287  51.8670  96.8886 0005686 126.7590 277.8977 15.37337462  2461
