OBJECT_NAME,OBJECT_ID,EPOCH,MEAN_MOTION,ECCENTRICITY,INCLINATION,RA_OF_ASC_NODE,ARG_OF_PERICENTER,MEAN_ANOMALY,EPHEMERIS_TYPE,CLASSIFICATION_TYPE,NORAD_CAT_ID,ELEMENT_SET_NO,REV_AT_EPOCH,BSTAR,MEAN_MOTION_DOT,MEAN_MOTION_DDOT
STARLINK-37276,2026-117W,2026-06-08T04:00:05.000256,15.96558224,.0000763,53.1560,288.3831,55.6252,299.0491,0,U,69258,999,271,-.45945E-2,-.1975798E-1,.11152E-2
STARLINK-37518,2026-117X,2026-06-08T04:00:05.000256,15.96954390,.0000959,53.1558,288.3723,51.5636,308.6804,0,U,69259,999,272,-.24538E-2,-.1086724E-1,.37392E-3
STARLINK-37478,2026-117Y,2026-06-08T04:00:05.000256,15.95724184,.0000859,53.1560,288.3770,54.1696,303.9043,0,U,69260,999,272,-.81035E-3,-.339327E-2,.49675E-4
STARLINK-37506,2026-117Z,2026-06-08T04:00:05.000256,15.95690538,.000094,53.1557,288.3675,54.9388,307.5987,0,U,69261,999,272,-.82504E-3,-.344785E-2,.50883E-4
STARLINK-37503,2026-117AA,2026-06-08T04:00:05.000256,15.94996696,.0000719,53.1559,288.3560,66.7549,300.9989,0,U,69262,999,272,-.14366E-2,-.575341E-2,.11765E-3
STARLINK-37502,2026-117AB,2026-06-08T04:00:05.000256,15.95399116,.0000937,53.1558,288.3520,53.0440,316.4333,0,U,69263,999,272,-.81403E-3,-.334963E-2,.48563E-4
STARLINK-37486,2026-117AC,2026-06-08T04:00:05.000256,15.95478617,.0000855,53.1555,288.3397,54.5437,320.9886,0,U,69264,999,272,-.78366E-3,-.323984E-2,.46226E-4
STARLINK-37435,2026-117AD,2026-06-08T04:00:05.000256,15.96029105,.000077,53.1556,288.3160,59.4987,326.9828,0,U,69265,999,272,-.44974E-2,-.1880241E-1,.10107E-2
STARLINK-37464,2026-117AE,2026-06-08T04:00:05.000256,15.96258675,.000065,53.1557,288.2930,59.5449,337.9823,0,U,69266,999,272,-.49035E-2,-.2073184E-1,.12169E-2
KUIPER-00282,2026-118A,2026-06-08T04:00:05.000256,15.35123486,.0011634,51.8579,97.0223,149.1588,189.6919,0,U,69267,999,196,.6163E-3,.21046E-3,0
KUIPER-00383,2026-118B,2026-06-08T04:00:05.000256,15.35218572,.00105,51.8585,96.9925,146.7206,206.7412,0,U,69268,999,202,.28089E-3,.9392E-4,0
KUIPER-00527,2026-118C,2026-06-08T04:00:05.000256,15.35792843,.0009779,51.8614,96.9701,142.2202,222.6904,0,U,69269,999,130,.8741E-3,.30689E-3,0
KUIPER-00562,2026-118D,2026-06-08T04:00:05.000256,15.38425747,.0001934,51.8720,96.8071,86.4385,352.8691,0,U,69270,999,256,.58555E-3,.22215E-3,0
KUIPER-00570,2026-118E,2026-06-08T04:00:05.000256,15.35385182,.0011541,51.8570,96.9928,151.0469,202.1480,0,U,69271,999,214,.58487E-3,.2012E-3,0
KUIPER-00572,2026-118F,2026-06-08T04:00:05.000256,15.36786509,.0007401,51.8670,96.9274,137.7719,247.7410,0,U,69272,999,190,.58513E-3,.21046E-3,0
KUIPER-00581,2026-118G,2026-06-08T04:00:05.000256,15.36462585,.0008968,51.8649,96.9495,142.6664,232.3015,0,U,69273,999,269,.57991E-3,.20642E-3,0
KUIPER-00584,2026-118H,2026-06-08T04:00:05.000256,15.35266971,.0011166,51.8597,97.0129,155.4049,188.2034,0,U,69274,999,130,.60871E-3,.20876E-3,0
KUIPER-00587,2026-118J,2026-06-08T04:00:05.000256,15.36446892,.0008335,51.8623,96.9435,144.4281,233.5749,0,U,69275,999,130,.57115E-3,.2031E-3,0
KUIPER-00590,2026-118K,2026-06-08T04:00:05.000256,15.37668541,.0004295,51.8686,96.8671,125.4001,289.2461,0,U,69276,999,245,.58767E-3,.2175E-3,0
KUIPER-00592,2026-118L,2026-06-08T04:00:05.000256,15.37886820,.0003792,51.8707,96.8504,103.7169,317.8106,0,U,69277,999,130,.58228E-3,.21701E-3,0
KUIPER-00593,2026-118M,2026-06-08T04:00:05.000256,15.37799375,.0004079,51.8713,96.8513,120.7794,299.6136,0,U,69278,999,266,.56072E-3,.20821E-3,0
KUIPER-00594,2026-118N,2026-06-08T04:00:05.000256,15.38404088,.0001477,51.8717,96.7980,62.3819,23.0759,0,U,69279,999,130,.68672E-3,.26117E-3,0
KUIPER-00595,2026-118P,2026-06-08T04:00:05.000256,15.38292391,.0002015,51.8711,96.8186,100.9627,335.7922,0,U,69280,999,263,.56877E-3,.21471E-3,0
KUIPER-00596,2026-118Q,2026-06-08T04:00:05.000256,15.35609763,.0011917,51.8545,97.0015,151.0438,197.1925,0,U,69281,999,189,.33894E-3,.11569E-3,0
KUIPER-00597,2026-118R,2026-06-08T04:00:05.000256,15.36846082,.0007266,51.8647,96.9121,136.0821,257.4086,0,U,69282,999,130,.57701E-3,.20788E-3,0
KUIPER-00599,2026-118S,2026-06-08T04:00:05.000256,15.37157057,.0006368,51.8689,96.8994,130.7806,267.8848,0,U,69283,999,170,.56061E-3,.20388E-3,0
KUIPER-00600,2026-118T,2026-06-08T04:00:05.000256,15.36557556,.0008974,51.8637,96.9395,138.6591,241.2816,0,U,69284,999,248,.57948E-3,.20691E-3,0
KUIPER-00601,2026-118U,2026-06-08T04:00:05.000256,15.37481991,.0004907,51.8703,96.8781,123.4841,284.8249,0,U,69285,999,251,.57035E-3,.20968E-3,0
KUIPER-00602,2026-118V,2026-06-08T04:00:05.000256,15.37923966,.0003198,51.8700,96.8450,111.5529,313.2219,0,U,69286,999,130,.57071E-3,.21286E-3,0
KUIPER-00603,2026-118W,2026-06-08T04:00:05.000256,15.37337462,.0005686,51.8670,96.8886,126.7590,277.8977,0,U,69287,999,246,.56257E-3,.2058E-3,0
